337P/WISE,e,15.3728,106.0709,160.9930,3.287425,0.1653562,0.49684112,275.4959,02/05.0/2021,2000,g 17.0,4.0
# From MPC104796
338P/McNaught,e,25.3761,9.7882,4.3971,3.897600,0.1280879,0.41128958,196.6556,02/05.0/2021,2000,g 12.0,4.0
# From MPC101101
339P/Gibbs,e,5.7345,172.7381,27.5208,3.696206,0.1386979,0.63567302,230.0276,02/05.0/2021,2000,g 17.0,4.0
# From MPC102957
340P/Boattini,e,2.0795,291.7255,35.8213,4.251365,0.1124376,0.28072008,172.8998,02/05.0/2021,2000,g 13.0,4.0
# From MPEC 2021-BE3
341P/Gibbs,e,3.7952,29.9856,312.1349,4.293865,0.1107724,0.41535096,189.7712,02/05.0/2021,2000,g 12.5,4.0
# From MPC101101
342P/SOHO,e,11.6729,28.0332,72.9708,3.043530,0.1856255,0.98285746,0.0000,10/19.2637/2021,2000,g  9.0,4.0
# From MPC109148
343P/NEAT-LONEOS,e,5.5838,257.2187,137.3711,5.460971,0.0772324,0.58403428,113.4443,02/05.0/2021,2000,g 14.0,4.0
# From MPC109148
344P/Read,e,3.4905,273.1816,140.3877,4.866430,0.0918097,0.42174379,142.9833,02/05.0/2021,2000,g 13.0,4.0
# From MPC109148
345P/LINEAR,e,2.7269,154.5023,196.3722,4.039358,0.1214047,0.22086824,201.9786,02/05.0/2021,2000,g 12.0,4.0
# From MPC110086
346P/Catalina,e,22.1860,102.4675,335.9919,4.476110,0.1040766,0.50231084,151.1627,02/05.0/2021,2000,g 14.0,4.0
# From MPC108599
347P/PANSTARRS,e,11.7487,261.0363,98.3159,3.606552,0.1439016,0.38561303,231.1818,02/05.0/2021,2000,g 15.0,4.0
# From MPEC 2020-SI8
348P/PANSTARRS,e,17.7406,312.9421,135.5713,3.151305,0.1761848,0.30669834,294.4063,02/05.0/2021,2000,g 14.0,4.0
# From MPC112394
349P/Lemmon,e,5.4909,331.7446,256.0519,3.572717,0.1459507,0.29915829,183.7899,02/05.0/2021,2000,g 14.0,4.0
# From MPC111775
350P/McNaught,e,7.3567,65.3541,140.4064,4.093303,0.1190127,0.09122880,136.4679,02/05.0/2021,2000,g 14.0,4.0
# From MPC105244
351P/Wiegert-PANSTARRS,e,12.7892,283.4493,352.6515,4.437302,0.1054449,0.29597711,200.8735,02/05.0/2021,2000,g 12.5,4.0
# From MPC110086
352P/Skiff,e,21.0088,28.0784,309.1665,6.636580,0.0576484,0.61820003,76.3031,02/05.0/2021,2000,g 11.5,4.0
# From MPEC 2020-AA5
353P/McNaught,e,28.4250,121.5627,230.3772,4.171359,0.1156878,0.47003231,132.0394,02/05.0/2021,2000,g 14.5,4.0
# From MPC105545
354P/LINEAR,e,5.2556,320.1294,133.0002,2.289784,0.2844541,0.12566086,80.6899,02/05.0/2021,2000,g 15.5,4.0
# From MPEC 2020-AA5
355P/LINEAR-NEAT,e,11.0378,51.4355,336.2493,3.472176,0.1523356,0.50702434,184.4925,02/05.0/2021,2000,g 15.5,2.0
# From MPC109148
356P/WISE,e,9.6363,160.7920,226.0083,4.160189,0.1161541,0.35483801,133.0899,02/05.0/2021,2000,g 14.0,4.0
# From MPC114609
357P/Hill,e,6.3107,44.5748,1.4066,4.461201,0.1045987,0.43464148,102.8339,02/05.0/2021,2000,g 15.5,4.0
# From MPEC 2020-HN5
358P/PANSTARRS,e,11.0575,85.7107,299.7276,3.148041,0.1764589,0.23828238,181.8324,02/05.0/2021,2000,g 18.0,4.0
# From MPC110086
359P/LONEOS,e,10.2664,149.7565,200.1430,4.639571,0.0986251,0.32401821,124.6277,02/05.0/2021,2000,g 13.5,4.0
# From MPC108599
360P/WISE,e,24.1012,2.1909,354.1198,3.702565,0.1383407,0.49877689,175.1045,02/05.0/2021,2000,g 19.5,6.0
# From MPC114609
361P/Spacewatch,e,13.8899,203.2515,219.0765,4.939534,0.0897791,0.43791962,85.1878,02/05.0/2021,2000,g 12.0,4.0
# From MPEC 2017-V13
362P/,e,15.5573,192.5765,53.6979,3.968361,0.1246773,0.27963643,202.7747,02/05.0/2021,2000,g 12.9,2.0
# From MPC114609
363P/Lemmon,e,5.3574,147.1278,341.1186,3.539323,0.1480211,0.53073142,157.2141,02/05.0/2021,2000,g 17.5,4.0
# From MPC114609
364P/PANSTARRS,e,12.1425,46.1992,211.9979,2.879100,0.2017525,0.72231935,193.0072,02/05.0/2021,2000,g 17.0,2.0
# From MPC111775
365P/PANSTARRS,e,9.8311,87.3390,66.2524,3.177249,0.1740313,0.57628309,189.5548,02/05.0/2021,2000,g 17.0,4.0
# From MPC114610
366P/Spacewatch,e,8.8592,70.7567,153.1532,3.495605,0.1508067,0.34837167,140.2684,02/05.0/2021,2000,g 15.0,4.0
# From MPC112395
367P/Catalina,e,8.4630,58.7191,172.9166,3.505428,0.1501732,0.28037689,144.1517,02/05.0/2021,2000,g 17.5,2.0
# From MPC114610
368P/NEAT,e,15.4822,257.9548,118.7822,5.526815,0.0758563,0.62630047,66.3359,02/05.0/2021,2000,g 14.0,4.0
# From MPC114610
369P/Hill,e,10.3124,47.2988,13.1934,4.385052,0.1073352,0.55430059,90.5824,02/05.0/2021,2000,g 15.0,4.0
# From MPC114610
370P/NEAT,e,19.4023,55.1266,356.6892,6.435678,0.0603688,0.61448003,58.6511,02/05.0/2021,2000,g 13.0,4.0
# From MPC114610
371P/LINEAR-Skiff,e,17.3773,67.3104,308.4554,4.181223,0.1152787,0.47653082,98.4688,02/05.0/2021,2000,g 16.0,4.0
# From MPEC 2020-K19
372P/McNaught,e,9.5100,325.8165,27.2397,4.503722,0.1031209,0.15266956,86.3617,02/05.0/2021,2000,g 13.5,4.0
# From MPC114610
373P/Rinner,e,13.7602,231.9484,221.1224,3.804245,0.1328316,0.39216365,88.7545,02/05.0/2021,2000,g 14.5,4.0
# From MPC114610
374P/Larson,e,10.7623,7.9125,51.5102,4.974333,0.0888386,0.46241482,67.1905,02/05.0/2021,2000,g 14.0,4.0
# From MPC114610
375P/Hill,e,17.3612,359.9433,119.4720,5.557835,0.0752221,0.65864897,58.4389,02/05.0/2021,2000,g 16.0,4.0
# From MPEC 2020-W26
376P/LONEOS,e,1.1929,314.8255,284.9737,5.851256,0.0696355,0.51780161,34.5603,02/05.0/2021,2000,g 12.5,4.0
# From MPC115888
377P/Scotti,e,9.0228,226.0596,355.0242,6.711659,0.0566838,0.25251307,11.7991,02/05.0/2021,2000,g  9.5,4.0
# From MPEC 2019-TG9
378P/McNaught,e,19.0822,94.4910,193.9893,6.387811,0.0610486,0.47078577,6.5640,02/05.0/2021,2000,g 12.0,4.0
# From MPC115889
379P/Spacewatch,e,12.4071,183.8530,31.1192,3.524600,0.1489496,0.33953712,82.4774,02/05.0/2021,2000,g 15.0,4.0
# From MPEC 2020-KB7
380P/PANSTARRS,e,8.2809,132.9793,89.2620,4.530587,0.1022050,0.33155943,62.4969,02/05.0/2021,2000,g 12.5,4.0
# From MPEC 2019-TG9
381P/LINEAR-Spacewatch,e,28.3751,173.7773,173.1456,7.120908,0.0518682,0.68178120,25.7784,02/05.0/2021,2000,g 17.5,2.0
# From MPC115889
382P/Larson,e,7.7581,175.9956,173.8272,6.317993,0.0620634,0.30500066,333.9506,02/05.0/2021,2000,g  8.0,4.0
# From MPC118844
383P/Christensen,e,12.3210,207.8802,133.6608,3.544822,0.1476768,0.59958258,69.0724,02/05.0/2021,2000,g 18.0,4.0
# From MPEC 2020-W26
384P/Kowalski,e,7.2831,354.2266,37.6289,2.901296,0.1994417,0.61546692,96.2378,02/05.0/2021,2000,g 19.5,4.0
# From MPEC 2020-C98
385P/Hill,e,16.8283,357.0643,44.3290,4.288312,0.1109876,0.40138596,56.5133,02/05.0/2021,2000,g 13.0,4.0
# From MPEC 2021-BE3
386P/PANSTARRS,e,15.2296,134.9478,353.2431,4.057688,0.1205830,0.41637296,20.4588,02/05.0/2021,2000,g 14.5,4.0
# From MPEC 2020-C98
387P/Boattini,e,8.9177,259.3271,162.7766,4.799340,0.0937415,0.73602852,48.5407,02/05.0/2021,2000,g 15.0,4.0
# From MPEC 2020-HN5
388P/Gibbs,e,23.8644,37.0447,42.3790,5.245260,0.0820453,0.61796221,46.1468,02/05.0/2021,2000,g 13.0,4.0
# From MPC118845
389P/Siding Spring,e,160.0660,218.8504,249.2910,5.626018,0.0738588,0.70435449,29.8225,02/05.0/2021,2000,g 16.0,4.0
# From MPEC 2021-BE3
390P/Gibbs,e,18.5605,152.2759,232.3479,5.802104,0.0705222,0.70704153,22.5489,02/05.0/2021,2000,g 12.0,4.0
# From MPEC 2021-BE3
391P/Kowalski,e,21.2762,124.7298,186.8703,4.677798,0.0974186,0.12076650,102.5527,02/05.0/2021,2000,g  8.0,4.0
# From MPEC 2020-HN5
392P/LINEAR,e,4.9299,24.8815,71.9786,6.147580,0.0646618,0.68281617,20.0579,02/05.0/2021,2000,g 14.5,4.0
# From MPEC 2021-BE3
393P/Spacewatch-Hill,e,16.7928,36.4195,328.1426,4.785427,0.0941506,0.12043067,44.1671,02/05.0/2021,2000,g 11.0,4.0
# From MPEC 2020-KB7
394P/PANSTARRS,e,8.5296,98.1247,54.5182,4.332432,0.1092965,0.36798652,47.2856,02/05.0/2021,2000,g 16.0,2.4
# From MPEC 2021-BE3
395P/Catalina-NEAT,e,3.2787,223.7877,89.8049,6.532092,0.0590372,0.37773631,340.5668,02/05.0/2021,2000,g 10.0,4.0
# From MPEC 2020-KB7
396P/,e,5.4363,136.6625,8.6294,6.820807,0.0553287,0.41611098,29.1142,02/05.0/2021,2000,g 12.0,4.0
# From MPEC 2021-BE3
397P/Lemmon,e,10.9283,8.2078,14.4169,3.826689,0.1316647,0.40496425,30.3714,02/05.0/2021,2000,g 12.0,4.0
# From MPEC 2021-BE3
398P/Boattini,e,11.0155,127.4623,320.2386,3.128310,0.1781309,0.58262246,7.1701,02/05.0/2021,2000,g 15.5,4.0
# From MPEC 2021-BE3
399P/PANSTARRS,e,13.3193,207.1465,214.2896,3.788649,0.1336526,0.44674800,345.7576,02/05.0/2021,2000,g 14.0,4.0
# From MPEC 2021-BE3
400P/PANSTARRS,e,10.9291,176.3980,238.7840,3.559002,0.1467951,0.40900744,359.2527,02/05.0/2021,2000,g 15.5,2.8
# From MPEC 2021-BE3
401P/McNaught,e,12.8043,359.8894,309.3051,5.771527,0.0710834,0.58014055,30.2380,02/05.0/2021,2000,g 12.5,4.0
# From MPEC 2021-BE3
402P/LINEAR,e,30.8530,123.0882,326.7573,7.007145,0.0531364,0.43803557,343.3826,02/05.0/2021,2000,g  8.0,4.0
# From MPEC 2021-BE3
403P/Catalina,e,12.3203,163.8146,277.6706,5.426512,0.0779692,0.50331859,11.0433,02/05.0/2021,2000,g 12.0,4.0
# From MPEC 2020-W26
404P/Bressi,e,9.7985,262.5381,159.1524,4.853288,0.0921828,0.13689175,273.3320,02/05.0/2021,2000,g 10.0,4.0
# From MPEC 2021-BE3
405P/Lemmon,e,9.3650,3.3126,112.2484,3.609934,0.1436994,0.68921769,6.1333,02/05.0/2021,2000,g 17.5,4.0
# From MPEC 2020-W26
406P/Gibbs,e,1.2135,11.4724,352.3644,3.573342,0.1459124,0.54191966,20.7624,02/05.0/2021,2000,g 17.0,4.0
# From MPEC 2021-BE3
407P/PANSTARRS-Fuls,e,4.8952,80.8351,92.4315,3.456089,0.1534005,0.38488476,56.7528,02/05.0/2021,2000,g 14.0,4.0
# From MPEC 2020-V78
408P/Novichonok-Gerke,e,19.2947,189.5194,225.6360,4.770581,0.0945904,0.27175629,303.0027,02/05.0/2021,2000,g 10.5,4.0
# From MPEC 2021-BE3
409P/LONEOS-Hill,e,17.1186,143.6711,15.1363,6.050527,0.0662238,0.71010053,0.5185,02/05.0/2021,2000,g 14.0,4.0
# From MPC107687
1I/`Oumuamua,h,09/09.4886/2017,122.6778,24.5997,241.6845,1.199252,0.255240,2000,23.0,2.0
# From MPEC 2020-K19
2I/Borisov,h,12/08.5549/2019,44.0527,308.1480,209.1251,3.356636,2.006548,2000,11.0,4.0
